QIANFAN-81              
1 63167U 25046J   25295.53325751  .00000174  00000+0  25171-3 0  9994
2 63167  88.9782 325.1751 0012664 268.0951  91.8750 13.50988983 40571
QIANFAN-82              
1 63168U 25046K   25295.49244266  .00000156  00000+0  22331-3 0  9996
2 63168  88.9783 325.2229 0010799 277.5520  82.4405 13.50971054 40550
QIANFAN-83              
1 63169U 25046L   25295.49216148  .00000175  00000+0  21197-3 0  9995
2 63169  88.9779 325.1000 0012059 263.4835  96.4950 13.61965667 40629
QIANFAN-84              
1 63170U 25046M   25295.52070179  .00000120  00000+0  16711-3 0  9999
2 63170  88.9783 325.3530 0013759 273.1581  86.7995 13.50987856 40487
QIANFAN-85              
1 63171U 25046N   25295.51712086  .00000184  00000+0  26713-3 0  9992
2 63171  88.9782 325.2253 0011151 276.1690  83.8191 13.50974203 40552
QIANFAN-86              
1 63172U 25046P   25295.52538475  .00000194  00000+0  28253-3 0  9994
2 63172  88.9784 325.0852 0009034 281.4993  78.5143 13.50971213 40635
QIANFAN-87              
1 63173U 25046Q   25295.49655030  .00000132  00000+0  18629-3 0  9996
2 63173  88.9774 325.2019 0009683 275.5795  84.4252 13.50969086 40560
QIANFAN-88              
1 63174U 25046R   25295.51303586  .00000151  00000+0  21612-3 0  9993
2 63174  88.9783 325.1534 0010122 285.1104  74.8927 13.50970239 40590
